{
  "version": 0.6,
  "generator": "Overpass API 0.7.62.1 084b4234",
  "osm3s": {
    "timestamp_osm_base": "2024-10-20T12:52:15Z",
    "timestamp_areas_base": "2024-10-09T00:21:11Z",
    "copyright": "The data included in this document is from www.openstreetmap.org. The data is made available under ODbL."
  },
  "elements": [
    {
      "type": "node",
      "id": 29391281,
      "lat": -6.8825853,
      "lon": 107.581367,
      "tags": {
        "amenity": "fuel",
        "name": "Pertamina",
        "ref": "Surya Sumantri Setrasari"
      }
    },
    {
      "type": "node",
      "id": 29392017,
      "lat": -6.8876837,
      "lon": 107.6020333,
      "tags": {
        "amenity": "fuel",
        "name": "Pertamina",
        "ref": "Cipaganti Atas"
      }
    },
    {
      "type": "node",
      "id": 29392645,
      "lat": -6.9071256,
      "lon": 107.5857922,
      "tags": {
        "amenity": "fuel",
        "brand": "Pertamina",
        "brand:wikidata": "Q1641044",
        "name": "Pertamina",
        "ref": "Husen Sastranegara"
      }
    },
    {
      "type": "node",
      "id": 32520380,
      "lat": -6.8997316,
      "lon": 107.6343231,
      "tags": {
        "addr:city": "Bandung",
        "addr:street": "Jalan Pahlawan, Cikutra, Cibeunying Kidul",
        "amenity": "fuel",
        "brand": "Pertamina",
        "brand:wikidata": "Q1641044",
        "fuel:diesel": "yes;lite",
        "fuel:octane_90": "yes",
        "fuel:octane_92": "yes",
        "fuel:solar": "no",
        "name": "Pertamina",
        "opening_hours": "24/7",
        "ref": "34.401.14 Pahlawan"
      }
    },
    {
      "type": "node",
      "id": 32529107,
      "lat": -6.8806043,
      "lon": 107.5987095,
      "tags": {
        "amenity": "fuel",
        "name": "Pertamina",
        "opening_hours": "24/7",
        "ref": "Dr. Setiabudhi"
      }
    },
    {
      "type": "node",
      "id": 32529115,
      "lat": -6.9185944,
      "lon": 107.5840572,
      "tags": {
        "amenity": "fuel",
        "brand": "Pertamina",
        "brand:wikidata": "Q1641044",
        "name": "Pertamina",
        "ref": "Sudirman"
      }
    },
    {
      "type": "node",
      "id": 1107877728,
      "lat": -6.9164642,
      "lon": 107.6184255,
      "tags": {
        "amenity": "fuel",
        "name": "Pertamina",
        "ref": "Sunda / Gudang Selatan"
      }
    },
    {
      "type": "node",
      "id": 1781964169,
      "lat": -6.9668864,
      "lon": 107.681435,
      "tags": {
        "amenity": "fuel",
        "name": "Pertamina",
        "ref": "Rest Area Gedebage"
      }
    },
    {
      "type": "node",
      "id": 1956516948,
      "lat": -6.8689389,
      "lon": 107.6208319,
      "tags": {
        "amenity": "fuel",
        "brand": "Pertamina",
        "name": "Pertamina",
        "ref": "COCO Dago Atas"
      }
    },
    {
      "type": "node",
      "id": 2016380280,
      "lat": -6.8890673,
      "lon": 107.5816606,
      "tags": {
        "amenity": "fuel",
        "brand": "Pertamina",
        "fuel:biodiesel": "no",
        "fuel:diesel": "yes",
        "fuel:octane_90": "yes",
        "fuel:octane_92": "yes",
        "fuel:octane_98": "yes",
        "name": "Pertamina",
        "ref": "Surya Sumantri Babakan Jeruk"
      }
    },
    {
      "type": "node",
      "id": 2500443120,
      "lat": -6.9492397,
      "lon": 107.625816,
      "tags": {
        "alt_name": "SPBU Cijagra",
        "amenity": "fuel",
        "brand": "Pertamina",
        "name": "Pertamina"
      }
    },
    {
      "type": "node",
      "id": 2500443121,
      "lat": -6.9548757,
      "lon": 107.6117403,
      "tags": {
        "amenity": "fuel",
        "brand": "Pertamina",
        "brand:wikidata": "Q1641044",
        "name": "Pertamina"
      }
    },
    {
      "type": "node",
      "id": 2701279836,
      "lat": -6.8910576,
      "lon": 107.6256199,
      "tags": {
        "amenity": "fuel",
        "name": "Pertamina",
        "ref": "Terminal Sadang Serang"
      }
    },
    {
      "type": "node",
      "id": 3426583579,
      "lat": -6.9047901,
      "lon": 107.673229,
      "tags": {
        "addr:street": "Jalan A.H Nasution",
        "amenity": "fuel",
        "name": "Pertamina",
        "ref": "Sukamiskin"
      }
    },
    {
      "type": "node",
      "id": 3426585961,
      "lat": -6.9289714,
      "lon": 107.7120823,
      "tags": {
        "amenity": "fuel",
        "name": "Pertamina",
        "ref": "Embah Jaksa Cipadung"
      }
    },
    {
      "type": "node",
      "id": 3429603357,
      "lat": -6.9057833,
      "lon": 107.6185972,
      "tags": {
        "amenity": "fuel",
        "brand": "Pertamina",
        "brand:wikidata": "Q1641044",
        "name": "Pertamina"
      }
    },
    {
      "type": "node",
      "id": 4143020532,
      "lat": -6.9231052,
      "lon": 107.6440968,
      "tags": {
        "amenity": "fuel",
        "brand": "Pertamina",
        "brand:wikidata": "Q1641044",
        "name": "Pertamina",
        "ref": "Babakan Daese"
      }
    },
    {
      "type": "node",
      "id": 4143041693,
      "lat": -6.9136217,
      "lon": 107.6517728,
      "tags": {
        "addr:street": "Jalan Purwakarta",
        "amenity": "fuel",
        "brand": "Pertamina",
        "brand:wikidata": "Q1641044",
        "name": "Pertamina",
        "ref": "Purwakarta"
      }
    },
    {
      "type": "node",
      "id": 4143047589,
      "lat": -6.9183776,
      "lon": 107.644464,
      "tags": {
        "addr:street": "Jalan Raya Kiara Condong",
        "amenity": "fuel",
        "name": "Pertamina",
        "ref": "Soma Kiaracondong"
      }
    },
    {
      "type": "node",
      "id": 4143049089,
      "lat": -6.9136483,
      "lon": 107.6589018,
      "tags": {
        "addr:street": "Jalan Terusan Jakarta",
        "amenity": "fuel",
        "brand": "Pertamina",
        "brand:wikidata": "Q1641044",
        "name": "Pertamina",
        "name:it": "Pertamina",
        "ref": "Terusan Jakarta"
      }
    },
    {
      "type": "node",
      "id": 4327908913,
      "lat": -6.9129281,
      "lon": 107.5746074,
      "tags": {
        "addr:city": "Bandung",
        "addr:street": "Jl. Rajawali Barat, Maleber, Andir",
        "amenity": "fuel",
        "brand": "Pertamina",
        "brand:wikidata": "Q1641044",
        "name": "Pertamina",
        "name:en": "Pertamina"
      }
    },
    {
      "type": "node",
      "id": 4329578164,
      "lat": -6.8992841,
      "lon": 107.6419203,
      "tags": {
        "addr:city": "Bandung",
        "addr:street": "Jl. PH.H. Mustofa, Neglasari, Cibeunying Kaler",
        "amenity": "fuel",
        "name": "Pertamina",
        "not:brand:wikidata": "Q1641044",
        "ref": "34.401.03 Cikutra"
      }
    },
    {
      "type": "node",
      "id": 5108763054,
      "lat": -6.9266538,
      "lon": 107.5748775,
      "tags": {
        "amenity": "fuel",
        "brand": "Pertamina",
        "name": "Pertamina",
        "operator": "Pertamina"
      }
    },
    {
      "type": "node",
      "id": 5177959021,
      "lat": -6.9138016,
      "lon": 107.6951878,
      "tags": {
        "amenity": "fuel",
        "name": "Pertamina",
        "ref": "KantorPOS Ujungberung"
      }
    },
    {
      "type": "node",
      "id": 5268872144,
      "lat": -6.9522858,
      "lon": 107.6379847,
      "tags": {
        "addr:city": "Bandung",
        "addr:housenumber": "55",
        "addr:postcode": "40266",
        "addr:street": "Jalan Terusan Buah Batu",
        "amenity": "fuel",
        "name": "Pertamina",
        "operator": "Pertamina",
        "ref": "Sekelimus Buahbatu"
      }
    },
    {
      "type": "node",
      "id": 5794030254,
      "lat": -6.9041715,
      "lon": 107.6650947,
      "tags": {
        "amenity": "fuel",
        "name": "Pertamina"
      }
    },
    {
      "type": "node",
      "id": 6788925186,
      "lat": -6.9413633,
      "lon": 107.5820851,
      "tags": {
        "amenity": "fuel",
        "name": "Pertamina"
      }
    },
    {
      "type": "node",
      "id": 10166346703,
      "lat": -6.8567704,
      "lon": 107.5930499,
      "tags": {
        "amenity": "fuel",
        "brand": "Pertamina",
        "brand:wikidata": "Q1641044",
        "fuel:octane_92": "yes",
        "name": "Pertashop",
        "ref": "3P.40102",
        "self_service": "no"
      }
    },
    {
      "type": "node",
      "id": 11050346382,
      "lat": -6.912101,
      "lon": 107.6369972,
      "tags": {
        "amenity": "fuel",
        "brand": "Pertamina",
        "brand:wikidata": "Q1641044",
        "name": "Pertamina"
      }
    },
    {
      "type": "node",
      "id": 11337326908,
      "lat": -6.9141507,
      "lon": 107.5708193,
      "tags": {
        "amenity": "fuel",
        "brand": "Pertamina",
        "brand:wikidata": "Q1641044",
        "name": "Pertamina"
      }
    },
    {
      "type": "node",
      "id": 11869631702,
      "lat": -6.9294651,
      "lon": 107.579498,
      "tags": {
        "amenity": "fuel",
        "brand": "Pertamina",
        "name": "SPBU Pertamina Trsn Pasirkoja"
      }
    },
    {
      "type": "node",
      "id": 11869640786,
      "lat": -6.9224243,
      "lon": 107.6306979,
      "tags": {
        "alt_name": "SPBU Laswi",
        "amenity": "fuel",
        "brand": "Pertamina",
        "name": "Pertamina",
        "operator": "Pertamina"
      }
    },
    {
      "type": "node",
      "id": 11869686069,
      "lat": -6.8936046,
      "lon": 107.5859941,
      "tags": {
        "amenity": "fuel",
        "brand": "Pertamina",
        "name": "SPBU Pertamina Trsn Pasteur"
      }
    },
    {
      "type": "node",
      "id": 12229339303,
      "lat": -6.9123708,
      "lon": 107.6016929,
      "tags": {
        "amenity": "fuel",
        "brand": "Shell",
        "fuel:diesel": "yes",
        "fuel:octane_92": "yes",
        "fuel:octane_95": "yes",
        "fuel:octane_98": "yes",
        "name": "Shell",
        "ref": "Kebon Kawung"
      }
    },
    {
      "type": "way",
      "id": 179266753,
      "center": {
        "lat": -6.8886545,
        "lon": 107.6037642
      },
      "nodes": [
        1896099765,
        1896099766,
        1896136093,
        1896136140,
        1896099764,
        1896099763,
        1896099765
      ],
      "tags": {
        "amenity": "fuel",
        "brand": "Pertamina",
        "compressed_air": "yes",
        "fuel:octane_95": "yes",
        "fuel:octane_98": "yes",
        "name": "Pertamina",
        "ref": "Cihampelas Atas",
        "source": "Local knowledge"
      }
    },
    {
      "type": "way",
      "id": 183170426,
      "center": {
        "lat": -6.9363598,
        "lon": 107.6103232
      },
      "nodes": [
        1935331285,
        1935331288,
        1935331287,
        1935331290,
        1935331289,
        1935331283,
        1935331285
      ],
      "tags": {
        "amenity": "fuel",
        "brand": "Pertamina"
      }
    },
    {
      "type": "way",
      "id": 285018918,
      "center": {
        "lat": -6.891756,
        "lon": 107.5629229
      },
      "nodes": [
        2887123651,
        2887123652,
        9339776051,
        2887123653,
        2887123654,
        9339776049,
        2887123651
      ],
      "tags": {
        "amenity": "fuel",
        "branch": "Gunung Batu",
        "brand": "Pertamina",
        "building": "yes",
        "name": "Pertamina",
        "ref": "Gunung Batu"
      }
    },
    {
      "type": "way",
      "id": 299058088,
      "center": {
        "lat": -6.8908283,
        "lon": 107.6165945
      },
      "nodes": [
        3029896492,
        3029896493,
        3029896494,
        5282399800,
        5282399801,
        3029896495,
        3029896492
      ],
      "tags": {
        "addr:city": "Bandung, Jawa Barat",
        "addr:street": "Jalan Dipatiukur",
        "amenity": "fuel",
        "brand": "Pertamina",
        "brand:wikidata": "Q1641044",
        "building": "yes",
        "name": "Pertamina"
      }
    },
    {
      "type": "way",
      "id": 321005288,
      "center": {
        "lat": -6.8935305,
        "lon": 107.5860977
      },
      "nodes": [
        3277147397,
        3277147398,
        3277147399,
        3277147400,
        3277147397
      ],
      "tags": {
        "addr:city": "Bandung",
        "addr:housenumber": "139",
        "addr:street": "Jalan Dokter Djunjunan",
        "amenity": "fuel",
        "name": "Pertamina",
        "opening_hours": "24/7",
        "operator": "Pertamina",
        "ref": "34.401.16 Dr. Djundjunan"
      }
    },
    {
      "type": "way",
      "id": 356386390,
      "center": {
        "lat": -6.9374582,
        "lon": 107.693917
      },
      "nodes": [
        3618550606,
        3618550607,
        3618550608,
        3618550609,
        3618550606
      ],
      "tags": {
        "addr:city": "Bandung",
        "addr:housenumber": "728",
        "addr:street": "Jalan Soekarno Hatta",
        "alt_name": "SPBU Ujungberung;SPBU Coco Ujungberung",
        "amenity": "fuel",
        "atm": "yes",
        "brand": "Pertamina",
        "brand:wikidata": "Q1641044",
        "fuel:diesel": "yes",
        "fuel:octane_88": "yes",
        "fuel:octane_92": "yes",
        "fuel:octane_95": "yes",
        "name": "Pertamina",
        "operator": "Pertamina"
      }
    },
    {
      "type": "way",
      "id": 383052743,
      "center": {
        "lat": -6.9396348,
        "lon": 107.6625098
      },
      "nodes": [
        3862534430,
        3862534440,
        3862534441,
        3862534443,
        3862534430
      ],
      "tags": {
        "addr:street": "Jalan Soekarno-Hatta",
        "amenity": "fuel",
        "brand": "Pertamina",
        "brand:wikidata": "Q1641044",
        "brand:wikipedia": "en:Pertamina",
        "building": "yes",
        "name": "Pertamina",
        "opening_hours": "24/7"
      }
    },
    {
      "type": "way",
      "id": 391859740,
      "center": {
        "lat": -6.8980911,
        "lon": 107.5970165
      },
      "nodes": [
        3951240398,
        3951240399,
        9805318852,
        3951240400,
        3951240401,
        9805318851,
        3951240398
      ],
      "tags": {
        "amenity": "fuel",
        "building": "commercial",
        "name": "SPBU Pertamina",
        "opening_hours": "24/7",
        "ref": "Sukajadi Hasan Sadikin"
      }
    },
    {
      "type": "way",
      "id": 426568894,
      "center": {
        "lat": -6.919876,
        "lon": 107.6119467
      },
      "nodes": [
        4258549218,
        4258549219,
        4258549220,
        4258549221,
        4258549218
      ],
      "tags": {
        "amenity": "fuel",
        "brand": "Pertamina",
        "brand:wikidata": "Q1641044",
        "name": "Pertamina",
        "ref": "Naripan x Tamblong"
      }
    },
    {
      "type": "way",
      "id": 515703457,
      "center": {
        "lat": -6.9382568,
        "lon": 107.6168083
      },
      "nodes": [
        5035814212,
        5862949222,
        5035814211,
        5035814210,
        5862949223,
        5035814209,
        5035814212
      ],
      "tags": {
        "amenity": "fuel",
        "building": "yes",
        "name": "SPBU Pertamina"
      }
    },
    {
      "type": "way",
      "id": 515704095,
      "center": {
        "lat": -6.9376946,
        "lon": 107.6178229
      },
      "nodes": [
        5035816773,
        5035816770,
        5862948675,
        5035816771,
        5035816772,
        5862948676,
        5035816773
      ],
      "tags": {
        "amenity": "fuel",
        "building": "yes",
        "name": "SPBU Pertamina"
      }
    },
    {
      "type": "way",
      "id": 633581790,
      "center": {
        "lat": -6.9605927,
        "lon": 107.6387438
      },
      "nodes": [
        5980787049,
        5980787050,
        6411928914,
        5980787045,
        5980787047,
        6411928915,
        5980787049
      ],
      "tags": {
        "addr:city": "Bandung",
        "addr:street": "Jalan Buah Batu",
        "alt_name": "SPBU Buah Batu Exit",
        "amenity": "fuel",
        "brand": "Pertamina",
        "brand:wikidata": "Q1641044",
        "brand:wikipedia": "en:Pertamina",
        "fuel:diesel": "yes",
        "fuel:octane_92": "yes",
        "fuel:octane_95": "yes",
        "fuel:octane_98": "yes",
        "name": "Pertamina",
        "operator": "Pertamina",
        "self_service": "no"
      }
    },
    {
      "type": "way",
      "id": 636169232,
      "center": {
        "lat": -6.8935818,
        "lon": 107.585959
      },
      "nodes": [
        5999412872,
        5999412871,
        5999412874,
        5999412873,
        5999412876,
        5999412875,
        5999412878,
        5999412877,
        5999412868,
        5999412867,
        5999412870,
        5999412869,
        5999412872
      ],
      "tags": {
        "amenity": "fuel",
        "brand": "Pertamina",
        "brand:wikidata": "Q1641044",
        "brand:wikipedia": "en:Pertamina",
        "name": "Pertamina"
      }
    },
    {
      "type": "way",
      "id": 638400222,
      "center": {
        "lat": -6.8859613,
        "lon": 107.5909396
      },
      "nodes": [
        6016895720,
        6016895722,
        6016895724,
        6016895713,
        6016895714,
        6016895715,
        6016895717,
        6016895710,
        6016895720
      ],
      "tags": {
        "amenity": "fuel",
        "building": "yes",
        "name": "Pertamini Barokah Lapangan Abra"
      }
    },
    {
      "type": "way",
      "id": 638470940,
      "center": {
        "lat": -6.8950995,
        "lon": 107.5892089
      },
      "nodes": [
        6017378666,
        6017378668,
        6017378667,
        6017378669,
        6017378666
      ],
      "tags": {
        "amenity": "fuel",
        "brand": "Pertamina",
        "brand:wikidata": "Q1641044",
        "brand:wikipedia": "en:Pertamina",
        "name": "Pertamina"
      }
    },
    {
      "type": "way",
      "id": 721493912,
      "center": {
        "lat": -6.8991444,
        "lon": 107.6271612
      },
      "nodes": [
        6768421537,
        6768421538,
        6768421539,
        6768421540,
        6768421537
      ],
      "tags": {
        "amenity": "fuel",
        "brand": "Pertamina",
        "brand:wikidata": "Q1641044",
        "brand:wikipedia": "en:Pertamina",
        "name": "Pertamina"
      }
    },
    {
      "type": "way",
      "id": 721497810,
      "center": {
        "lat": -6.9429392,
        "lon": 107.6423171
      },
      "nodes": [
        6768455146,
        6768455147,
        6768455148,
        6768455149,
        6768455146
      ],
      "tags": {
        "amenity": "fuel",
        "brand": "Pertamina",
        "brand:wikidata": "Q1641044",
        "brand:wikipedia": "en:Pertamina",
        "name": "Pertamina"
      }
    },
    {
      "type": "way",
      "id": 721497811,
      "center": {
        "lat": -6.9409118,
        "lon": 107.6419023
      },
      "nodes": [
        6768455150,
        6768455151,
        6768455152,
        6768455153,
        6768455150
      ],
      "tags": {
        "alt_name": "SPBU Terusan Kiaracondong",
        "amenity": "fuel",
        "brand": "Pertamina",
        "brand:wikidata": "Q1641044",
        "brand:wikipedia": "en:Pertamina",
        "name": "Pertamina",
        "ref": "31.402.01"
      }
    },
    {
      "type": "way",
      "id": 968159502,
      "center": {
        "lat": -6.8901183,
        "lon": 107.6128827
      },
      "nodes": [
        8957079872,
        8957079873,
        8957079874,
        8957079875,
        8957079876,
        8957079877,
        8957079878,
        8957079879,
        8957079880,
        8957079881,
        8957079882,
        8957079883,
        8957079884,
        8957079885,
        8957079886,
        8957079887,
        8957079872
      ],
      "tags": {
        "alt_name": "SPBU Dago; SPBU COCO Dago",
        "amenity": "fuel",
        "brand": "Pertamina",
        "brand:wikidata": "Q1641044",
        "brand:wikipedia": "en:Pertamina",
        "name": "Pertamina",
        "ref": "COCO Dago"
      }
    },
    {
      "type": "way",
      "id": 1026675567,
      "center": {
        "lat": -6.9234503,
        "lon": 107.6278685
      },
      "nodes": [
        9465844954,
        7713034482,
        9465844955,
        9465844956,
        7713034481,
        9465844957,
        9465844954
      ],
      "tags": {
        "alt_name": "SPBU Laswi Samoja",
        "amenity": "fuel",
        "brand": "Pertamina",
        "brand:wikidata": "Q1641044",
        "brand:wikipedia": "en:Pertamina",
        "name": "Pertamina"
      }
    },
    {
      "type": "way",
      "id": 1026675568,
      "center": {
        "lat": -6.9231756,
        "lon": 107.6278679
      },
      "nodes": [
        9465844958,
        9465844959,
        9465844960,
        9465844961,
        9465844958
      ],
      "tags": {
        "alt_name": "SPBU Laswi Flyover;SPBU Samoja;SPBU Laswi samoja",
        "amenity": "fuel",
        "brand": "Pertamina",
        "brand:wikidata": "Q1641044",
        "brand:wikipedia": "en:Pertamina",
        "name": "Pertamina"
      }
    },
    {
      "type": "way",
      "id": 1123915746,
      "center": {
        "lat": -6.9014423,
        "lon": 107.6505327
      },
      "nodes": [
        10278306435,
        10278306439,
        10278306440,
        10656723596,
        10278306438,
        10278306435
      ],
      "tags": {
        "amenity": "fuel",
        "brand": "Shell",
        "brand:wikidata": "Q110716465",
        "fuel:diesel": "yes",
        "fuel:octane_92": "yes",
        "fuel:octane_95": "yes",
        "fuel:octane_98": "yes",
        "landuse": "commercial",
        "name": "Shell",
        "opening_hours": "Mo-Su 06:00-00:00",
        "payment:coins": "yes",
        "payment:contactless": "yes",
        "payment:credit_cards": "yes",
        "payment:debit_cards": "yes",
        "payment:electronic_purses": "yes",
        "payment:notes": "yes",
        "ref": "Cimuncang"
      }
    },
    {
      "type": "way",
      "id": 1123999692,
      "center": {
        "lat": -6.9260197,
        "lon": 107.7104689
      },
      "nodes": [
        10278926606,
        10278935310,
        10278935322,
        10278935314,
        10278926605,
        10278935318,
        10278926599,
        10278935324,
        10278926606
      ],
      "tags": {
        "amenity": "fuel",
        "area": "yes",
        "brand": "Pertamina",
        "fuel:diesel": "yes",
        "fuel:octane_90": "yes",
        "fuel:octane_92": "yes",
        "fuel:octane_98": "yes",
        "landuse": "retail",
        "operator": "Pertamina"
      }
    },
    {
      "type": "way",
      "id": 1152622066,
      "center": {
        "lat": -6.9363637,
        "lon": 107.6238456
      },
      "nodes": [
        10720680091,
        10720680098,
        10720680094,
        10720680101,
        10720680091
      ],
      "tags": {
        "amenity": "fuel",
        "brand": "Shell",
        "brand:wikidata": "Q110716465",
        "capacity": "6",
        "fuel:diesel": "yes",
        "fuel:octane_92": "yes",
        "fuel:octane_95": "yes",
        "fuel:octane_98": "yes",
        "landuse": "retail",
        "name": "Shell",
        "opening_hours": "24/7",
        "payment:cash": "yes",
        "payment:credit_cards": "yes",
        "payment:debit_cards": "yes",
        "payment:electronic_purses": "yes",
        "ref": "Pelajar Pejuang",
        "self_service": "no"
      }
    },
    {
      "type": "way",
      "id": 1158365985,
      "center": {
        "lat": -6.9478733,
        "lon": 107.6353323
      },
      "nodes": [
        10772607291,
        10772607294,
        11782116439,
        11782116443,
        10772607295,
        10772607298,
        11782116442,
        11782116438,
        10772607291
      ],
      "tags": {
        "amenity": "fuel",
        "branch": "Soekarno Hatta Buahbatu",
        "brand": "Pertamina",
        "building": "service",
        "building:use": "retail",
        "fuel:biodiesel": "yes",
        "fuel:diesel": "yes",
        "fuel:octane_90": "yes",
        "fuel:octane_92": "yes",
        "fuel:octane_98": "yes",
        "name": "Pertamina",
        "opening_hours": "24/7",
        "ref": "34.402.02"
      }
    },
    {
      "type": "way",
      "id": 1184111365,
      "center": {
        "lat": -6.9188563,
        "lon": 107.5851533
      },
      "nodes": [
        10996423031,
        10996423030,
        10996423029,
        10996423028,
        10996423027,
        10996423026,
        10996423031
      ],
      "tags": {
        "amenity": "fuel",
        "branch": "Sudirman",
        "brand": "Shell",
        "brand:wikidata": "Q110716465",
        "fuel:GTL_diesel": "no",
        "fuel:biodiesel": "no",
        "fuel:diesel": "yes",
        "fuel:lpg": "no",
        "fuel:octane_90": "no",
        "fuel:octane_92": "yes",
        "fuel:octane_95": "yes",
        "fuel:octane_98": "no",
        "landuse": "commercial",
        "name": "Shell",
        "opening_hours": "Mo-Su 06:00-24:00",
        "payment:cash": "yes",
        "payment:contactless": "yes",
        "payment:credit_cards": "yes",
        "payment:debit_cards": "yes",
        "payment:electronic_purses": "yes",
        "ref": "Sudirman",
        "shop": "convenience"
      }
    },
    {
      "type": "way",
      "id": 1184757522,
      "center": {
        "lat": -6.9470997,
        "lon": 107.5992049
      },
      "nodes": [
        11004958379,
        11004958378,
        11004958372,
        11004958368,
        11004958367,
        11004958371,
        11004958379
      ],
      "tags": {
        "branch": "SPBU Shell Soekarno Hatta Cibaduyut",
        "brand": "Shell",
        "indoor": "room",
        "name": "Shell Select",
        "opening_hours": "Mo-Su 06:00-24:00",
        "payment:cash": "yes",
        "payment:contactless": "yes",
        "payment:credit_cards": "yes",
        "payment:debit_cards": "yes",
        "payment:electronic_purses": "yes",
        "ref": "Soekarno Hatta Cibaduyut",
        "room": "shop",
        "shop": "convenience"
      }
    },
    {
      "type": "way",
      "id": 1184757526,
      "center": {
        "lat": -6.9472785,
        "lon": 107.5991364
      },
      "nodes": [
        11004958391,
        11004958390,
        11004958389,
        11004958366,
        11004958365,
        11004958388,
        11004958387,
        11004958386,
        11004958385,
        11004958391
      ],
      "tags": {
        "amenity": "fuel",
        "branch": "Soekarno Hatta Cibaduyut",
        "brand": "Shell",
        "fuel:GTL_diesel": "no",
        "fuel:biodiesel": "no",
        "fuel:diesel": "yes",
        "fuel:lpg": "no",
        "fuel:octane_90": "no",
        "fuel:octane_92": "yes",
        "fuel:octane_95": "yes",
        "fuel:octane_98": "yes",
        "landuse": "commercial",
        "name": "Shell",
        "opening_hours": "Mo-Su 06:00-24:00",
        "payment:cash": "yes",
        "payment:contactless": "yes",
        "payment:credit_cards": "yes",
        "payment:debit_cards": "yes",
        "payment:electronic_purses": "yes",
        "ref": "Soekarno Hatta Cibaduyut",
        "shop": "kiosk"
      }
    },
    {
      "type": "way",
      "id": 1184757534,
      "center": {
        "lat": -6.9043778,
        "lon": 107.6070345
      },
      "nodes": [
        11004972526,
        11004972525,
        11004972524,
        11004972523,
        11004972522,
        11004972521,
        10793008418,
        11004972519,
        11004972518,
        11004972526
      ],
      "tags": {
        "amenity": "fuel",
        "branch": "Wastukencana",
        "brand": "Pertamina",
        "brand:wikidata": "Q1641044",
        "fuel:GTL_diesel": "yes",
        "fuel:diesel": "yes",
        "fuel:octane_90": "yes",
        "fuel:octane_92": "yes",
        "fuel:octane_98": "yes",
        "landuse": "commercial",
        "name": "Pertamina",
        "opening_hours": "Mo-Su 06:00-22:00",
        "payment:cash": "yes",
        "payment:contactless": "no",
        "payment:credit_cards": "no",
        "payment:debit_cards": "no",
        "payment:electronic_purses": "no",
        "shop": "convenience"
      }
    },
    {
      "type": "way",
      "id": 1184767822,
      "center": {
        "lat": -6.894576,
        "lon": 107.5872113
      },
      "nodes": [
        11005210662,
        11005210661,
        11005210660,
        11005210659,
        11005210658,
        11005210657,
        11005210656,
        11005210655,
        11005210654,
        11005210653,
        11005210652,
        11005210651,
        11005210649,
        11005210650,
        11005210662
      ],
      "tags": {
        "amenity": "fuel",
        "branch": "Dr. Djunjunan",
        "brand": "Shell",
        "brand:wikidata": "Q110716465",
        "capacity": "4",
        "fuel:GTL_diesel": "yes",
        "fuel:diesel": "yes",
        "fuel:octane_92": "yes",
        "fuel:octane_95": "yes",
        "fuel:octane_98": "yes",
        "landuse": "retail",
        "name": "Shell",
        "opening_hours": "Mo-Su 06:00-24:00",
        "ref": "Pasteur"
      }
    },
    {
      "type": "way",
      "id": 1184767825,
      "center": {
        "lat": -6.894847,
        "lon": 107.5871306
      },
      "nodes": [
        11005210682,
        11005210681,
        11005210675,
        11005210673,
        11005210674,
        11005210682
      ],
      "tags": {
        "branch": "Shell Dr. Djunjunan",
        "brand": "Shell",
        "indoor": "room",
        "name": "Shell Select",
        "opening_hours": "Mo-Su 06:00-24:00",
        "payment:cash": "yes",
        "payment:contactless": "yes",
        "payment:credit_cards": "yes",
        "payment:debit_cards": "yes",
        "payment:electronic_purses": "yes",
        "shop": "convenience"
      }
    },
    {
      "type": "way",
      "id": 1184768320,
      "center": {
        "lat": -6.8989287,
        "lon": 107.6043322
      },
      "nodes": [
        11005092952,
        11005092951,
        11005092950,
        11005092949,
        11005092948,
        11005092947,
        11005092946,
        11005092945,
        11005092952
      ],
      "tags": {
        "amenity": "fuel",
        "branch": "Cihampelas",
        "brand": "Shell",
        "capacity": "6",
        "fuel:GTL_diesel": "yes",
        "fuel:biodiesel": "no",
        "fuel:diesel": "yes",
        "fuel:lpg": "no",
        "fuel:octane_90": "no",
        "fuel:octane_92": "yes",
        "fuel:octane_95": "yes",
        "fuel:octane_98": "yes",
        "landuse": "commercial",
        "name": "Shell",
        "opening_hours": "Mo-Su 06:00-24:00",
        "payment:cash": "yes",
        "payment:contactless": "yes",
        "payment:credit_cards": "yes",
        "payment:debit_cards": "yes",
        "payment:electronic_purses": "yes",
        "ref": "Cihampelas",
        "shop": "yes"
      }
    },
    {
      "type": "way",
      "id": 1184768323,
      "center": {
        "lat": -6.8989536,
        "lon": 107.6044531
      },
      "nodes": [
        11005092962,
        11005092958,
        11005092957,
        11005092959,
        11005092978,
        11005092962
      ],
      "tags": {
        "branch": "Shell Cihampelas",
        "brand": "Shell",
        "indoor": "room",
        "name": "Shell Select",
        "opening_hours": "Mo-Su 06:00-24:00",
        "payment:cash": "yes",
        "payment:contactless": "yes",
        "payment:credit_cards": "yes",
        "payment:debit_cards": "yes",
        "payment:electronic_purses": "yes",
        "room": "shop",
        "shop": "convenience"
      }
    },
    {
      "type": "way",
      "id": 1188020113,
      "center": {
        "lat": -6.9259288,
        "lon": 107.5932695
      },
      "nodes": [
        11031840948,
        11031840961,
        11054197585,
        11054197586,
        11054197587,
        11054197588,
        11054197589,
        11031840944,
        11031840964,
        11031840953,
        11031840946,
        11031840948
      ],
      "tags": {
        "amenity": "fuel",
        "branch": "Pasir Koja",
        "brand": "Shell",
        "capacity": "6",
        "fuel:GTL_diesel": "yes",
        "fuel:diesel": "no",
        "fuel:octane_92": "yes",
        "fuel:octane_95": "yes",
        "fuel:octane_98": "yes",
        "landuse": "retail",
        "name": "Shell",
        "opening_hours": "Mo-Su 06:00-24:00",
        "payment:cash": "yes",
        "payment:contactless": "yes",
        "payment:credit_cards": "yes",
        "payment:debit_cards": "yes",
        "payment:electronic_purses": "yes",
        "ref": "Pasir Koja",
        "shop": "yes"
      }
    },
    {
      "type": "way",
      "id": 1189082378,
      "center": {
        "lat": -6.925705,
        "lon": 107.6316851
      },
      "nodes": [
        11041650657,
        11041650656,
        11041650655,
        11041650654,
        11041650653,
        11041650652,
        11041650667,
        11041650651,
        11041650650,
        11041650649,
        11041650648,
        11041650657
      ],
      "tags": {
        "amenity": "fuel",
        "branch": "Gatot Subroto",
        "brand": "Pertamina",
        "fuel:GTL_diesel": "yes",
        "fuel:diesel": "yes",
        "fuel:octane_90": "yes",
        "fuel:octane_92": "yes",
        "fuel:octane_98": "yes",
        "name": "Pertamina",
        "opening_hours": "Mo-Su 06:00-24:00",
        "shop": "no"
      }
    },
    {
      "type": "way",
      "id": 1189777686,
      "center": {
        "lat": -6.9134161,
        "lon": 107.633871
      },
      "nodes": [
        11047522393,
        11047522392,
        11047522399,
        11047522391,
        11047522389,
        11047522388,
        11047522403,
        11047522386,
        11047522385,
        11047522393
      ],
      "tags": {
        "amenity": "fuel",
        "barrier": "wall",
        "branch": "Simpang Ahmad Yani - Supratman",
        "brand": "Pertamina",
        "brand:wikidata": "Q1641044",
        "capacity": "10",
        "compressed_air": "yes",
        "fuel:GTL_diesel": "yes",
        "fuel:diesel": "yes",
        "fuel:octane_90": "yes",
        "fuel:octane_92": "yes",
        "fuel:octane_98": "yes",
        "landuse": "commercial",
        "name": "Pertamina",
        "opening_hours": "24/7",
        "payment:cash": "yes",
        "shop": "no"
      }
    },
    {
      "type": "way",
      "id": 1189780777,
      "center": {
        "lat": -6.9367444,
        "lon": 107.6914537
      },
      "nodes": [
        11047608305,
        6380011638,
        11047607104,
        11047607103,
        11047607102,
        11047607101,
        11047607069,
        11047607100,
        11047608305
      ],
      "tags": {
        "amenity": "fuel",
        "branch": "Simpang Gedebage Utara",
        "brand": "Pertamina",
        "brand:wikidata": "Q1641044",
        "capacity": "6",
        "fuel:biodiesel": "yes",
        "fuel:diesel": "yes",
        "fuel:octane_90": "yes",
        "fuel:octane_92": "yes",
        "landuse": "commercial",
        "name": "Pertamina",
        "opening_hours": "Mo-Su 06:00-21:00",
        "ref": "34-402.09",
        "shop": "no"
      }
    },
    {
      "type": "way",
      "id": 1190521961,
      "center": {
        "lat": -6.9258988,
        "lon": 107.5933671
      },
      "nodes": [
        11031840962,
        11031840949,
        11054197599,
        11054197597,
        11054197598,
        11031840962
      ],
      "tags": {
        "branch": "Pasir Koja",
        "brand": "Shell",
        "name": "Shell Select",
        "opening_hours": "Mo-Su 06:00-24:00",
        "payment:cash": "yes",
        "payment:contactless": "yes",
        "payment:credit_cards": "yes",
        "payment:debit_cards": "yes",
        "payment:electronic_purses": "yes",
        "ref": "Pasir Koja",
        "shop": "convenience"
      }
    },
    {
      "type": "way",
      "id": 1210808941,
      "center": {
        "lat": -6.9402951,
        "lon": 107.677419
      },
      "nodes": [
        11218316672,
        11218316673,
        11218316674,
        11218316675,
        11218316672
      ],
      "tags": {
        "amenity": "fuel",
        "brand": "Pertamina",
        "brand:wikidata": "Q1641044",
        "name": "Pertamina"
      }
    },
    {
      "type": "way",
      "id": 1215285823,
      "center": {
        "lat": -6.9359453,
        "lon": 107.714289
      },
      "nodes": [
        11259452100,
        11259520247,
        11259452098,
        11259452097,
        11259452101,
        11259452099,
        11259452103,
        11259452118,
        11259452117,
        11259452116,
        11259452113,
        11259452112,
        11259452111,
        11259452110,
        11259452100
      ],
      "tags": {
        "amenity": "fuel",
        "branch": "Cibiru",
        "brand": "Pertamina",
        "fuel:biodiesel": "no",
        "fuel:diesel": "yes",
        "fuel:octane_90": "yes",
        "fuel:octane_92": "yes",
        "fuel:octane_95": "no",
        "fuel:octane_98": "yes",
        "name": "Pertamina",
        "payment:cash": "yes",
        "ref": "34.406-02",
        "shop": "yes",
        "toilets": "yes"
      }
    },
    {
      "type": "way",
      "id": 1283219621,
      "center": {
        "lat": -6.8753644,
        "lon": 107.5969678
      },
      "nodes": [
        11906768332,
        11906768331,
        11906768330,
        11906768329,
        11906768328,
        11906768327,
        11906768332
      ],
      "tags": {
        "amenity": "fuel",
        "brand": "Pertamina",
        "brand:wikidata": "Q1641044",
        "name": "Pertamina"
      }
    },
    {
      "type": "way",
      "id": 1293528265,
      "center": {
        "lat": -6.9302936,
        "lon": 107.6037514
      },
      "nodes": [
        11991032829,
        9199210967,
        11991032828,
        11991032827,
        11778342962,
        11991032829
      ],
      "tags": {
        "amenity": "fuel",
        "building": "yes",
        "name": "SPBU Pertamina"
      }
    },
    {
      "type": "way",
      "id": 1306241578,
      "center": {
        "lat": -6.9239028,
        "lon": 107.6966157
      },
      "nodes": [
        12097749338,
        12097749339,
        12097749340,
        12097749341,
        12097749342,
        12097749343,
        12097749338
      ],
      "tags": {
        "alt_name": "SPBU Cinambo",
        "amenity": "fuel",
        "brand": "Pertamina",
        "fuel:diesel": "yes",
        "fuel:octane_90": "yes",
        "fuel:octane_92": "yes",
        "name": "Pertamina",
        "operator": "Pertamina",
        "ref": "34.406.06"
      }
    }
  ]
}